[
    {
        "Altitude(m)": 604969.0891362295,
        "Argument of Periapsis(deg)": 0.0,
        "Eccentricity": 0.0,
        "Inclination(deg)": 60.0,
        "Latitude(deg)": -0.09266061598045858,
        "Longitude(deg)": -5.02247221100967,
        "Mean Anomaly(deg)": 0.0,
        "RAAN(deg)": 95.0,
        "Satellite Name": "Test1 418",
        "Satellite Number": 418,
        "Semi-Major Axis(m)": 6980739.136638005,
        "Time(s)": 0
    },
    {
        "Altitude(m)": 604900.0286364342,
        "Argument of Periapsis(deg)": 0.00010418945913296404,
        "Eccentricity": 0.0,
        "Inclination(deg)": 60.0,
        "Latitude(deg)": 0.44776581849358793,
        "Longitude(deg)": -4.754350255372796,
        "Mean Anomaly(deg)": 0.6201061454618275,
        "RAAN(deg)": 94.99957995086027,
        "Satellite Name": "Test1 418",
        "Satellite Number": 418,
        "Semi-Major Axis(m)": 6980739.136638005,
        "Time(s)": 10
    },
    {
        "Altitude(m)": 604834.1962119922,
        "Argument of Periapsis(deg)": 0.0002083789182659281,
        "Eccentricity": 0.0,
        "Inclination(deg)": 60.0,
        "Latitude(deg)": 0.9881890271346945,
        "Longitude(deg)": -4.486176888762907,
        "Mean Anomaly(deg)": 1.240212290923655,
        "RAAN(deg)": 94.99915990172052,
        "Satellite Name": "Test1 418",
        "Satellite Number": 418,
        "Semi-Major Axis(m)": 6980739.136638005,
        "Time(s)": 20
    },
    {
        "Altitude(m)": 604771.5982419067,
        "Argument of Periapsis(deg)": 0.00031256837739889213,
        "Eccentricity": 0.0,
        "Inclination(deg)": 60.0,
        "Latitude(deg)": 1.5285919240126236,
        "Longitude(deg)": -4.217897721900465,
        "Mean Anomaly(deg)": 1.8603184363854954,
        "RAAN(deg)": 94.99873985258078,
        "Satellite Name": "Test1 418",
        "Satellite Number": 418,
        "Semi-Major Axis(m)": 6980739.136638005,
        "Time(s)": 30
    },
    {
        "Altitude(m)": 604712.2395752879,
        "Argument of Periapsis(deg)": 0.0004167578365318562,
        "Eccentricity": 0.0,
        "Inclination(deg)": 60.0,
        "Latitude(deg)": 2.0689574017363657,
        "Longitude(deg)": -3.949457796964758,
        "Mean Anomaly(deg)": 2.480424581847323,
        "RAAN(deg)": 94.99831980344103,
        "Satellite Name": "Test1 418",
        "Satellite Number": 418,
        "Semi-Major Axis(m)": 6980739.136638005,
        "Time(s)": 40
    },
    {
        "Altitude(m)": 604656.1235317868,
        "Argument of Periapsis(deg)": 0.0005209472956648203,
        "Eccentricity": 0.0,
        "Inclination(deg)": 60.0,
        "Latitude(deg)": 2.609268321541262,
        "Longitude(deg)": -3.680802564158838,
        "Mean Anomaly(deg)": 3.1005307273091502,
        "RAAN(deg)": 94.99789975430129,
        "Satellite Name": "Test1 418",
        "Satellite Number": 418,
        "Semi-Major Axis(m)": 6980739.136638005,
        "Time(s)": 50
    },
    {
        "Altitude(m)": 604603.251902799,
        "Argument of Periapsis(deg)": 0.0006251367547977843,
        "Eccentricity": 0.0,
        "Inclination(deg)": 60.0,
        "Latitude(deg)": 3.149507503338978,
        "Longitude(deg)": -3.411877345312319,
        "Mean Anomaly(deg)": 3.720636872770978,
        "RAAN(deg)": 94.99747970516155,
        "Satellite Name": "Test1 418",
        "Satellite Number": 418,
        "Semi-Major Axis(m)": 6980739.136638005,
        "Time(s)": 60
    },
    {
        "Altitude(m)": 604553.624953415,
        "Argument of Periapsis(deg)": 0.0007293262139307483,
        "Eccentricity": 0.0,
        "Inclination(deg)": 60.0,
        "Latitude(deg)": 3.689657715714288,
        "Longitude(deg)": -3.142626797366015,
        "Mean Anomaly(deg)": 4.340743018232819,
        "RAAN(deg)": 94.9970596560218,
        "Satellite Name": "Test1 418",
        "Satellite Number": 418,
        "Semi-Major Axis(m)": 6980739.136638005,
        "Time(s)": 70
    },
    {
        "Altitude(m)": 604507.2414251306,
        "Argument of Periapsis(deg)": 0.0008335156730637124,
        "Eccentricity": 0.0,
        "Inclination(deg)": 60.0,
        "Latitude(deg)": 4.229701665852341,
        "Longitude(deg)": -2.872995888582805,
        "Mean Anomaly(deg)": 4.960849163694646,
        "RAAN(deg)": 94.99663960688207,
        "Satellite Name": "Test1 418",
        "Satellite Number": 418,
        "Semi-Major Axis(m)": 6980739.136638005,
        "Time(s)": 80
    },
    {
        "Altitude(m)": 604464.0985392862,
        "Argument of Periapsis(deg)": 0.0009377051321966765,
        "Eccentricity": 0.0,
        "Inclination(deg)": 60.0,
        "Latitude(deg)": 4.769621989388415,
        "Longitude(deg)": -2.6029293617098364,
        "Mean Anomaly(deg)": 5.580955309156474,
        "RAAN(deg)": 94.99621955774232,
        "Satellite Name": "Test1 418",
        "Satellite Number": 418,
        "Semi-Major Axis(m)": 6980739.136638005,
        "Time(s)": 90
    },
    {
        "Altitude(m)": 604424.1920012796,
        "Argument of Periapsis(deg)": 0.0010418945913296407,
        "Eccentricity": 0.0,
        "Inclination(deg)": 60.0,
        "Latitude(deg)": 5.309401240163521,
        "Longitude(deg)": -2.332371196935123,
        "Mean Anomaly(deg)": 6.2010614546183005,
        "RAAN(deg)": 94.99579950860257,
        "Satellite Name": "Test1 418",
        "Satellite Number": 418,
        "Semi-Major Axis(m)": 6980739.136638005,
        "Time(s)": 100
    },
    {
        "Altitude(m)": 604387.5160055052,
        "Argument of Periapsis(deg)": 0.0011460840504626045,
        "Eccentricity": 0.0,
        "Inclination(deg)": 60.0,
        "Latitude(deg)": 5.849021879869337,
        "Longitude(deg)": -2.061265587484159,
        "Mean Anomaly(deg)": 6.821167600080142,
        "RAAN(deg)": 94.99537945946284,
        "Satellite Name": "Test1 418",
        "Satellite Number": 418,
        "Semi-Major Axis(m)": 6980739.136638005,
        "Time(s)": 110
    },
    {
        "Altitude(m)": 604354.063241043,
        "Argument of Periapsis(deg)": 0.0012502735095955685,
        "Eccentricity": 0.0,
        "Inclination(deg)": 60.0,
        "Latitude(deg)": 6.388466267573774,
        "Longitude(deg)": -1.7895564020796926,
        "Mean Anomaly(deg)": 7.441273745541969,
        "RAAN(deg)": 94.99495941032309,
        "Satellite Name": "Test1 418",
        "Satellite Number": 418,
        "Semi-Major Axis(m)": 6980739.136638005,
        "Time(s)": 120
    },
    {
        "Altitude(m)": 604323.8248980879,
        "Argument of Periapsis(deg)": 0.0013544629687285324,
        "Eccentricity": 0.0,
        "Inclination(deg)": 60.0,
        "Latitude(deg)": 6.927716649110464,
        "Longitude(deg)": -1.5171866471092978,
        "Mean Anomaly(deg)": 8.061379891003797,
        "RAAN(deg)": 94.99453936118334,
        "Satellite Name": "Test1 418",
        "Satellite Number": 418,
        "Semi-Major Axis(m)": 6980739.136638005,
        "Time(s)": 130
    },
    {
        "Altitude(m)": 604296.7906751095,
        "Argument of Periapsis(deg)": 0.0014586524278614966,
        "Eccentricity": 0.0,
        "Inclination(deg)": 60.0,
        "Latitude(deg)": 7.466755146314552,
        "Longitude(deg)": -1.2440994413442985,
        "Mean Anomaly(deg)": 8.681486036465625,
        "RAAN(deg)": 94.99411931204361,
        "Satellite Name": "Test1 418",
        "Satellite Number": 418,
        "Semi-Major Axis(m)": 6980739.136638005,
        "Time(s)": 140
    },
    {
        "Altitude(m)": 604272.9487867367,
        "Argument of Periapsis(deg)": 0.0015628418869944607,
        "Eccentricity": 0.0,
        "Inclination(deg)": 60.0,
        "Latitude(deg)": 8.005563746095943,
        "Longitude(deg)": -0.9702374774345056,
        "Mean Anomaly(deg)": 9.301592181927452,
        "RAAN(deg)": 94.99369926290386,
        "Satellite Name": "Test1 418",
        "Satellite Number": 418,
        "Semi-Major Axis(m)": 6980739.136638005,
        "Time(s)": 150
    },
    {
        "Altitude(m)": 604252.2859723937,
        "Argument of Periapsis(deg)": 0.0016670313461274247,
        "Eccentricity": 0.0,
        "Inclination(deg)": 60.0,
        "Latitude(deg)": 8.544124289332094,
        "Longitude(deg)": -0.6955424830220884,
        "Mean Anomaly(deg)": 9.921698327389292,
        "RAAN(deg)": 94.99327921376413,
        "Satellite Name": "Test1 418",
        "Satellite Number": 418,
        "Semi-Major Axis(m)": 6980739.136638005,
        "Time(s)": 160
    },
    {
        "Altitude(m)": 604234.7875056147,
        "Argument of Periapsis(deg)": 0.0017712208052603888,
        "Eccentricity": 0.0,
        "Inclination(deg)": 60.0,
        "Latitude(deg)": 9.08241845956237,
        "Longitude(deg)": -0.41995619431869474,
        "Mean Anomaly(deg)": 10.541804472851119,
        "RAAN(deg)": 94.99285916462438,
        "Satellite Name": "Test1 418",
        "Satellite Number": 418,
        "Semi-Major Axis(m)": 6980739.136638005,
        "Time(s)": 170
    },
    {
        "Altitude(m)": 604220.4372041284,
        "Argument of Periapsis(deg)": 0.001875410264393353,
        "Eccentricity": 0.0,
        "Inclination(deg)": 60.0,
        "Latitude(deg)": 9.620427771474125,
        "Longitude(deg)": -0.14341981636947987,
        "Mean Anomaly(deg)": 11.161910618312948,
        "RAAN(deg)": 94.99243911548464,
        "Satellite Name": "Test1 418",
        "Satellite Number": 418,
        "Semi-Major Axis(m)": 6980739.136638005,
        "Time(s)": 180
    },
    {
        "Altitude(m)": 604209.2174405929,
        "Argument of Periapsis(deg)": 0.0019795997235263173,
        "Eccentricity": 0.0,
        "Inclination(deg)": 60.0,
        "Latitude(deg)": 10.158133559161532,
        "Longitude(deg)": 0.13412651715285698,
        "Mean Anomaly(deg)": 11.782016763774774,
        "RAAN(deg)": 94.9920190663449,
        "Satellite Name": "Test1 418",
        "Satellite Number": 418,
        "Semi-Major Axis(m)": 6980739.136638005,
        "Time(s)": 190
    }
]